{"type": "FeatureCollection", "features": [ {"type": "Feature", "properties": {"norad_id": 65590, "name": "COSMOS 2596 (708K)", "group": "gnss", "lat": 14.313801526683376, "lon": 134.65498864315194, "alt_km": 19156.498931691127, "timestamp": "2025-12-09T14:52:26.406072+00:00", "meta": {"OBJECT_NAME": "COSMOS 2596 (708K)", "OBJECT_ID": "2025-206B", "EPOCH": "2025-12-09T01:32:49.274880", "MEAN_MOTION": 2.13100277, "ECCENTRICITY": 0.00139858, "INCLINATION": 64.7463, "RA_OF_ASC_NODE": 321.6013, "ARG_OF_PERICENTER": 305.3711, "MEAN_ANOMALY": 152.8075, "EPHEMERIS_TYPE": 0, "CLASSIFICATION_TYPE": "U", "NORAD_CAT_ID": 65590, "ELEMENT_SET_NO": 999, "REV_AT_EPOCH": 186, "BSTAR": 0, "MEAN_MOTION_DOT": -5.1e-07, "MEAN_MOTION_DDOT": 0}, "tle": {"line1": "1 65590U 25206B   25343.06445920 -.00000051  00000+0  00000+0 0  9992", "line2": "2 65590  64.7463 321.6013 0013985 305.3711 152.8075  2.13100277  1865"}}, "geometry": {"type": "Point", "coordinates": [134.65498864315194, 14.313801526683376]}}]}